[{"OBJECT_NAME":"STARLINK-33639","OBJECT_ID":"2025-070X","EPOCH":"2026-03-09T22:30:39.791520","MEAN_MOTION":15.27591831,"ECCENTRICITY":0.00020486,"INCLINATION":43.0026,"RA_OF_ASC_NODE":254.9733,"ARG_OF_PERICENTER":264.6736,"MEAN_ANOMALY":95.3881,"EPHEMERIS_TYPE":0,"CLASSIFICATION_TYPE":"U","NORAD_CAT_ID":63481,"ELEMENT_SET_NO":999,"REV_AT_EPOCH":5305,"BSTAR":0.00088641974,"MEAN_MOTION_DOT":0.0002422,"MEAN_MOTION_DDOT":0},{"OBJECT_NAME":"COSMOS 2251 DEB","OBJECT_ID":"1993-036SV","EPOCH":"2026-03-09T21:55:42.811680","MEAN_MOTION":15.15006345,"ECCENTRICITY":0.00579573,"INCLINATION":74.0283,"RA_OF_ASC_NODE":1.8812,"ARG_OF_PERICENTER":55.6817,"MEAN_ANOMALY":304.9843,"EPHEMERIS_TYPE":0,"CLASSIFICATION_TYPE":"U","NORAD_CAT_ID":34452,"ELEMENT_SET_NO":999,"REV_AT_EPOCH":91981,"BSTAR":0.0011020825,"MEAN_MOTION_DOT":0.00021495,"MEAN_MOTION_DDOT":0}]
